STARLETTE               
1 07646U 75010A   23008.49762806 -.00000131  00000+0  79231-5 0  9993
2 07646  49.8263  20.9040 0205721 234.9040 123.2412 13.82315548420822
LAGEOS 1                
1 08820U 76039A   23007.58232069  .00000000  00000+0  00000+0 0  9998
2 08820 109.8450 108.9344 0045124 211.6558 137.4122  6.38665000832883
AJISAI (EGS)            
1 16908U 86061A   23008.54593795 -.00000090  00000+0  54379-4 0  9996
2 16908  50.0109  48.4053 0011340 223.9433 283.1568 12.44498347324389
COSMOS 1989 (ETALON 1)  
1 19751U 89001C   23008.44986212 -.00000002  00000+0  00000+0 0  9991
2 19751  64.3587 115.3326 0023964 213.9677 227.7640  2.13156286264675
COSMOS 2024 (ETALON 2)  
1 20026U 89039C   23007.48227250 -.00000067  00000+0  00000+0 0  9993
2 20026  65.5103 353.4660 0018312 219.2002 143.9338  2.13204323261718
LAGEOS 2                
1 22195U 92070B   23008.45427076 -.00000009  00000+0  00000+0 0  9993
2 22195  52.6770 340.2545 0138391 358.4002 161.0160  6.47293477714329
STELLA                  
1 22824U 93061B   23008.52545561 -.00000030  00000+0  67837-5 0  9992
2 22824  98.9480  39.4619 0005376 284.5095 242.7742 14.27396753525797
LARES                   
1 38077U 12006A   23007.46643469 -.00000055  00000+0 -10143-3 0  9991
2 38077  69.4950 278.8335 0008378 164.7559 195.3712 12.54931130499503
